{
  "norad_id": 68547,
  "name": "STARLINK-37245",
  "history": [
    {
      "epoch": "2026-04-09T20:00:01.999008Z",
      "apogee_km": 276.242031966146,
      "perigee_km": 275.05898854682255,
      "latitude_deg": -43.783660935462095,
      "longitude_deg": 45.18420313421502,
      "height_km": 290.5817907588574,
      "semi_major_axis_km": 6653.787510256484,
      "eccentricity": 8.89e-05,
      "inclination_deg": 53.1587,
      "raan_deg": 228.8298,
      "arg_perigee_deg": 52.5623,
      "mean_anomaly_deg": 247.9694,
      "mean_motion_rev_day": 15.99555711
    }
  ]
}