STARLINK-37245          
1 68547U 26070F   26099.83335647 -.00900447  27355-3 -17542-2 0  9992
2 68547  53.1587 228.8298 0000889  52.5623 247.9694 15.99555711  2380
